{
  "type": "FeatureCollection",
  "features": [
    {
      "type": "Feature",
      "properties": {
        "norad_id": 32376,
        "name": "COSMO-SKYMED 2",
        "group": "resource",
        "lat": 71.88291488725953,
        "lon": 25.587668309384494,
        "alt_km": 614.7692433053198,
        "timestamp": "2025-12-25T09:48:51.942884+00:00",
        "meta_object_name": "COSMO-SKYMED 2",
        "meta_object_id": "2007-059A",
        "meta_epoch": "2025-12-24T23:36:54.004032",
        "meta_mean_motion": 14.82157313,
        "meta_eccentricity": 0.00013101,
        "meta_inclination": 97.8806,
        "meta_ra_of_asc_node": 180.1234,
        "meta_arg_of_pericenter": 82.4144,
        "meta_mean_anomaly": 277.7218,
        "meta_ephemeris_type": 0,
        "meta_classification_type": "U",
        "meta_norad_cat_id": 32376,
        "meta_element_set_no": 999,
        "meta_rev_at_epoch": 97619,
        "meta_bstar": 7.6357743e-05,
        "meta_mean_motion_dot": 5.56e-06,
        "meta_mean_motion_ddot": 0,
        "tle_line1": "1 32376U 07059A   25358.98395838  .00000556  00000+0  76358-4 0  9996",
        "tle_line2": "2 32376  97.8806 180.1234 0001310  82.4144 277.7218 14.82157313976199"
      },
      "geometry": {
        "type": "Point",
        "coordinates": [
          25.587668309384494,
          71.88291488725953
        ]
      }
    },
    {
      "type": "Feature",
      "properties": {
        "norad_id": 32382,
        "name": "RADARSAT-2",
        "group": "resource",
        "lat": -19.73926634589272,
        "lon": -179.29092856748167,
        "alt_km": 797.2305823200468,
        "timestamp": "2025-12-25T09:48:51.942896+00:00",
        "meta_object_name": "RADARSAT-2",
        "meta_object_id": "2007-061A",
        "meta_epoch": "2025-12-24T22:48:25.277184",
        "meta_mean_motion": 14.29984279,
        "meta_eccentricity": 0.0001114,
        "meta_inclination": 98.5795,
        "meta_ra_of_asc_node": 3.3624,
        "meta_arg_of_pericenter": 86.235,
        "meta_mean_anomaly": 273.896,
        "meta_ephemeris_type": 0,
        "meta_classification_type": "U",
        "meta_norad_cat_id": 32382,
        "meta_element_set_no": 999,
        "meta_rev_at_epoch": 94105,
        "meta_bstar": -4.304362e-05,
        "meta_mean_motion_dot": -1.55e-06,
        "meta_mean_motion_ddot": 0,
        "tle_line1": "1 32382U 07061A   25358.95029256 -.00000155  00000+0 -43044-4 0  9994",
        "tle_line2": "2 32382  98.5795   3.3624 0001114  86.2350 273.8960 14.29984279941051"
      },
      "geometry": {
        "type": "Point",
        "coordinates": [
          -179.29092856748167,
          -19.73926634589272
        ]
      }
    },
    {
      "type": "Feature",
      "properties": {
        "norad_id": 32783,
        "name": "CARTOSAT-2A",
        "group": "resource",
        "lat": 77.35552677968059,
        "lon": -93.55425705369466,
        "alt_km": 631.007373753062,
        "timestamp": "2025-12-25T09:48:51.942908+00:00",
        "meta_object_name": "CARTOSAT-2A",
        "meta_object_id": "2008-021A",
        "meta_epoch": "2025-12-25T04:29:34.251072",
        "meta_mean_motion": 14.78954815,
        "meta_eccentricity": 0.0010926,
        "meta_inclination": 97.7909,
        "meta_ra_of_asc_node": 48.6206,
        "meta_arg_of_pericenter": 323.1692,
        "meta_mean_anomaly": 36.8768,
        "meta_ephemeris_type": 0,
        "meta_classification_type": "U",
        "meta_norad_cat_id": 32783,
        "meta_element_set_no": 999,
        "meta_rev_at_epoch": 95308,
        "meta_bstar": 0.00016185,
        "meta_mean_motion_dot": 1.145e-05,
        "meta_mean_motion_ddot": 0,
        "tle_line1": "1 32783U 08021A   25359.18720198  .00001145  00000+0  16185-3 0  9998",
        "tle_line2": "2 32783  97.7909  48.6206 0010926 323.1692  36.8768 14.78954815953081"
      },
      "geometry": {
        "type": "Point",
        "coordinates": [
          -93.55425705369466,
          77.35552677968059
        ]
      }
    },
    {
      "type": "Feature",
      "properties": {
        "norad_id": 33320,
        "name": "HUANJING 1A (HJ-1A)",
        "group": "resource",
        "lat": 11.19444146380812,
        "lon": 168.7038787355047,
        "alt_km": 633.3770845740864,
        "timestamp": "2025-12-25T09:48:51.942918+00:00",
        "meta_object_name": "HUANJING 1A (HJ-1A)",
        "meta_object_id": "2008-041A",
        "meta_epoch": "2025-12-25T05:49:08.863680",
        "meta_mean_motion": 14.83431218,
        "meta_eccentricity": 0.0019234,
        "meta_inclination": 97.6549,
        "meta_ra_of_asc_node": 347.0191,
        "meta_arg_of_pericenter": 354.464,
        "meta_mean_anomaly": 5.6359,
        "meta_ephemeris_type": 0,
        "meta_classification_type": "U",
        "meta_norad_cat_id": 33320,
        "meta_element_set_no": 999,
        "meta_rev_at_epoch": 93261,
        "meta_bstar": 0.00018487,
        "meta_mean_motion_dot": 1.471e-05,
        "meta_mean_motion_ddot": 0,
        "tle_line1": "1 33320U 08041A   25359.24246370  .00001471  00000+0  18487-3 0  9999",
        "tle_line2": "2 33320  97.6549 347.0191 0019234 354.4640   5.6359 14.83431218932617"
      },
      "geometry": {
        "type": "Point",
        "coordinates": [
          168.7038787355047,
          11.19444146380812
        ]
      }
    },
    {
      "type": "Feature",
      "properties": {
        "norad_id": 33321,
        "name": "HUANJING 1B (HJ-1B)",
        "group": "resource",
        "lat": 3.0286017357449313,
        "lon": -9.564608398252224,
        "alt_km": 600.6479799182653,
        "timestamp": "2025-12-25T09:48:51.942929+00:00",
        "meta_object_name": "HUANJING 1B (HJ-1B)",
        "meta_object_id": "2008-041B",
        "meta_epoch": "2025-12-25T04:56:32.293248",
        "meta_mean_motion": 14.82854123,
        "meta_eccentricity": 0.0037706,
        "meta_inclination": 97.6406,
        "meta_ra_of_asc_node": 350.6483,
        "meta_arg_of_pericenter": 36.2647,
        "meta_mean_anomaly": 324.1112,
        "meta_ephemeris_type": 0,
        "meta_classification_type": "U",
        "meta_norad_cat_id": 33321,
        "meta_element_set_no": 999,
        "meta_rev_at_epoch": 93262,
        "meta_bstar": 0.00023256,
        "meta_mean_motion_dot": 1.855e-05,
        "meta_mean_motion_ddot": 0,
        "tle_line1": "1 33321U 08041B   25359.20592932  .00001855  00000+0  23256-3 0  9990",
        "tle_line2": "2 33321  97.6406 350.6483 0037706  36.2647 324.1112 14.82854123932620"
      },
      "geometry": {
        "type": "Point",
        "coordinates": [
          -9.564608398252224,
          3.0286017357449313
        ]
      }
    },
    {
      "type": "Feature",
      "properties": {
        "norad_id": 33331,
        "name": "GEOEYE 1",
        "group": "resource",
        "lat": -64.19051326482526,
        "lon": -126.64932971080438,
        "alt_km": 683.1466593196919,
        "timestamp": "2025-12-25T09:48:51.942939+00:00",
        "meta_object_name": "GEOEYE 1",
        "meta_object_id": "2008-042A",
        "meta_epoch": "2025-12-25T02:08:21.698592",
        "meta_mean_motion": 14.64716376,
        "meta_eccentricity": 0.0003001,
        "meta_inclination": 98.1237,
        "meta_ra_of_asc_node": 70.2135,
        "meta_arg_of_pericenter": 231.2616,
        "meta_mean_anomaly": 128.8319,
        "meta_ephemeris_type": 0,
        "meta_classification_type": "U",
        "meta_norad_cat_id": 33331,
        "meta_element_set_no": 999,
        "meta_rev_at_epoch": 92466,
        "meta_bstar": 0.00012284,
        "meta_mean_motion_dot": 6.06e-06,
        "meta_mean_motion_ddot": 0,
        "tle_line1": "1 33331U 08042A   25359.08914003  .00000606  00000+0  12284-3 0  9997",
        "tle_line2": "2 33331  98.1237  70.2135 0003001 231.2616 128.8319 14.64716376924662"
      },
      "geometry": {
        "type": "Point",
        "coordinates": [
          -126.64932971080438,
          -64.19051326482526
        ]
      }
    },
    {
      "type": "Feature",
      "properties": {
        "norad_id": 33396,
        "name": "THEOS",
        "group": "resource",
        "lat": -49.150385724939795,
        "lon": -132.93712672239312,
        "alt_km": 832.469496674953,
        "timestamp": "2025-12-25T09:48:51.942950+00:00",
        "meta_object_name": "THEOS",
        "meta_object_id": "2008-049A",
        "meta_epoch": "2025-12-25T03:39:45.431424",
        "meta_mean_motion": 14.20099185,
        "meta_eccentricity": 0.0001183,
        "meta_inclination": 98.5845,
        "meta_ra_of_asc_node": 56.875,
        "meta_arg_of_pericenter": 93.974,
        "meta_mean_anomaly": 266.1572,
        "meta_ephemeris_type": 0,
        "meta_classification_type": "U",
        "meta_norad_cat_id": 33396,
        "meta_element_set_no": 999,
        "meta_rev_at_epoch": 89326,
        "meta_bstar": 9.0086e-05,
        "meta_mean_motion_dot": 1.49e-06,
        "meta_mean_motion_ddot": 0,
        "tle_line1": "1 33396U 08049A   25359.15260916  .00000149  00000+0  90086-4 0  9999",
        "tle_line2": "2 33396  98.5845  56.8750 0001183  93.9740 266.1572 14.20099185893267"
      },
      "geometry": {
        "type": "Point",
        "coordinates": [
          -132.93712672239312,
          -49.150385724939795
        ]
      }
    }
  ]
}